     2.100          NAVIGATION                              RINEX VERSION / TYPE
fic2rin                                 09/08/2010 00:08:33 PGM / RUN BY / DATE
                                                            END OF HEADER
20 10  9  7 18  0  0.0  .513712875545D-04 -.341060513165D-12  .000000000000D+00
     .440000000000D+02 -.325312500000D+02  .556130307917D-08 -.238583203576D+01
    -.160001218319D-05  .412131298799D-02  .340491533279D-05  .515353241539D+04
     .237600000000D+06  .111758708954D-07 -.149760870480D+01 -.540167093277D-07
     .935561033964D+00  .301687500000D+03  .130269448115D+01 -.871643450306D-08
    -.297155234851D-09  .100000000000D+01  .160000000000D+04  .000000000000D+00
     .240000000000D+01  .000000000000D+00 -.791624188423D-08  .440000000000D+02
     .230406000000D+06  .400000000000D+01
21 10  9  7 18  0  0.0 -.865366309881D-04 -.261479726760D-11  .000000000000D+00
     .470000000000D+02  .854687500000D+02  .514414284563D-08 -.156123906543D+01
     .429712235928D-05  .168154985877D-01  .868923962116D-05  .515363996124D+04
     .237600000000D+06  .258907675743D-06 -.250019879456D+01 -.191852450371D-06
     .932502680834D+00  .195687500000D+03 -.244673696976D+01 -.829070248389D-08
     .581095633537D-09  .100000000000D+01  .160000000000D+04  .000000000000D+00
     .240000000000D+01  .000000000000D+00 -.121071934700D-07  .470000000000D+02
     .230406000000D+06  .400000000000D+01
22 10  9  7 18  0  0.0  .163587741554D-03 -.795807864051D-12  .000000000000D+00
     .630000000000D+02 -.398125000000D+02  .551737267786D-08  .266625225289D+01
    -.209733843803D-05  .560129655059D-02  .322610139847D-05  .515371282768D+04
     .237600000000D+06  .223517417908D-07 -.143892358074D+01 -.651925802231D-07
     .933295183056D+00  .301625000000D+03 -.193680876619D+01 -.871071997931D-08
    -.309298597814D-09  .100000000000D+01  .160000000000D+04  .000000000000D+00
     .240000000000D+01  .000000000000D+00 -.176951289177D-07  .630000000000D+02
     .230406000000D+06  .400000000000D+01
23 10  9  7 18  0  0.0  .354911666363D-03 -.181898940355D-11  .000000000000D+00
     .112000000000D+03 -.196875000000D+02  .397516558160D-08  .922119183817D+00
    -.946223735809D-06  .700717419386D-02  .137817114592D-04  .515365293312D+04
     .237600000000D+06  .115483999252D-06 -.407707965805D+00  .163912773132D-06
     .967265807121D+00  .116406250000D+03  .309042504715D+01 -.776818071876D-08
    -.397873715894D-09  .100000000000D+01  .160000000000D+04  .000000000000D+00
     .240000000000D+01  .000000000000D+00 -.200234353542D-07  .112000000000D+03
     .230406000000D+06  .400000000000D+01
24 10  9  7 18  0  0.0  .319635961205D-03  .329691829393D-11  .000000000000D+00
     .720000000000D+02  .864375000000D+02  .498306470750D-08  .126576193805D+01
     .447034835815D-05  .572726398241D-02  .802055001259D-05  .515478521729D+04
     .237600000000D+06  .119209289551D-06 -.245987072059D+01  .132247805595D-06
     .949077228145D+00  .213812500000D+03 -.403905636908D+00 -.834784772137D-08
     .476448417418D-09  .100000000000D+01  .160000000000D+04  .000000000000D+00
     .240000000000D+01  .000000000000D+00 -.139698386192D-08  .720000000000D+02
     .230406000000D+06  .400000000000D+01
25 10  9  7 18  0  0.0 -.409069471061D-04 -.795807864051D-12  .000000000000D+00
     .840000000000D+02 -.425000000000D+02  .517985861905D-08  .280722389297D+01
    -.222958624363D-05  .740595860407D-03  .181421637535D-05  .515377642441D+04
     .237600000000D+06  .113621354103D-06  .166188908154D+01 -.186264514923D-07
     .960333227059D+00  .344343750000D+03  .194784048075D+01 -.873964975578D-08
    -.114647632677D-09  .100000000000D+01  .160000000000D+04  .100000000000D+01
     .240000000000D+01  .000000000000D+00  .465661287308D-08  .840000000000D+02
     .230406000000D+06  .400000000000D+01
26 10  9  7 18  0  0.0 -.665569677949D-05 -.693489710102D-11  .000000000000D+00
     .410000000000D+02 -.240625000000D+02  .356229124087D-08  .627186882245D+00
    -.123679637909D-05  .197926828405D-01  .139437615871D-04  .515364688301D+04
     .237600000000D+06 -.339001417160D-06 -.348339228904D+00  .186264514923D-08
     .990039932074D+00  .131718750000D+03  .111011978828D+01 -.780853954273D-08
    -.474305471012D-09  .100000000000D+01  .160000000000D+04  .000000000000D+00
     .240000000000D+01  .000000000000D+00 -.605359673500D-08  .410000000000D+02
     .230406000000D+06  .400000000000D+01
29 10  9  7 18  0  0.0  .147708691657D-03  .284217094304D-11  .000000000000D+00
     .650000000000D+02 -.754687500000D+02  .427839249793D-08 -.143793484561D+01
    -.404380261898D-05  .271197792608D-02  .125579535961D-04  .515368782616D+04
     .237600000000D+06 -.130385160446D-06  .275773651523D+01  .298023223877D-07
     .961266523443D+00  .136031250000D+03 -.124791486267D+01 -.796033157976D-08
    -.326799326789D-09  .100000000000D+01  .160000000000D+04  .000000000000D+00
     .240000000000D+01  .000000000000D+00 -.884756445885D-08  .650000000000D+02
     .230406000000D+06  .400000000000D+01
30 10  9  7 18  0  0.0  .276329461485D-03  .329691829393D-11  .000000000000D+00
     .720000000000D+02 -.383437500000D+02  .522664628223D-08 -.308237094581D+01
    -.202469527721D-05  .126206011046D-01  .130571424961D-05  .515369442749D+04
     .237600000000D+06  .325962901115D-06  .163344245662D+01 -.428408384323D-07
     .956968696879D+00  .350562500000D+03  .151125570726D+01 -.860035823944D-08
    -.792890169915D-10  .100000000000D+01  .160000000000D+04  .000000000000D+00
     .240000000000D+01  .000000000000D+00 -.791624188423D-08  .720000000000D+02
     .230406000000D+06  .400000000000D+01
31 10  9  7 18  0  0.0 -.111181288958D-04  .306954461848D-11  .000000000000D+00
     .750000000000D+02  .118468750000D+03  .429696470011D-08 -.702413525314D+00
     .590644776821D-05  .738316087518D-02  .802241265774D-05  .515375613785D+04
     .237600000000D+06 -.128522515297D-06  .634294180076D+00  .167638063431D-07
     .977874435527D+00  .237968750000D+03 -.105221517637D+01 -.814605360154D-08
     .666456332010D-09  .100000000000D+01  .160000000000D+04  .000000000000D+00
     .240000000000D+01  .000000000000D+00 -.130385160446D-07  .750000000000D+02
     .230406000000D+06  .400000000000D+01
32 10  9  7 18  0  0.0 -.798450782895D-04 -.898126018001D-11  .000000000000D+00
     .110000000000D+02 -.466250000000D+02  .511664170009D-08  .924450103857D-01
    -.254064798355D-05  .126579860225D-01  .473484396935D-05  .515362743759D+04
     .237600000000D+06 -.204890966415D-07 -.137812910143D+01 -.223517417908D-06
     .957466489865D+00  .291312500000D+03 -.940521256668D+00 -.871143429478D-08
    -.461090634847D-09  .100000000000D+01  .160000000000D+04  .000000000000D+00
     .240000000000D+01  .000000000000D+00 -.325962901115D-08  .110000000000D+02
     .230406000000D+06  .400000000000D+01
 9 10  9  7 17 59 44.0  .290442258120D-04  .227373675443D-11  .000000000000D+00
     .100000000000D+02  .117906250000D+03  .404659712844D-08 -.141346807909D+01
     .657327473164D-05  .170727907680D-01  .901892781258D-05  .515370751572D+04
     .237584000000D+06 -.298023223877D-07  .603820263766D+00  .387430191040D-06
     .981722773197D+00  .221906250000D+03  .154933567260D+01 -.798247535928D-08
     .612882671880D-09  .100000000000D+01  .160000000000D+04  .000000000000D+00
     .240000000000D+01  .000000000000D+00 -.558793544769D-08  .100000000000D+02
     .232986000000D+06  .400000000000D+01
12 10  9  7 17 59 44.0 -.752764753997D-04  .375166564481D-11  .000000000000D+00
     .190000000000D+02 -.454375000000D+02  .498699344258D-08 -.733298180744D+00
    -.236742198467D-05  .334377982654D-02  .177696347237D-05  .515361084938D+04
     .237584000000D+06  .596046447754D-07  .168866698214D+01 -.242143869400D-07
     .971628427790D+00  .352187500000D+03 -.329201071266D+00 -.863321675099D-08
    -.835749098019D-10  .100000000000D+01  .160000000000D+04  .000000000000D+00
     .240000000000D+01  .000000000000D+00 -.116415321827D-07  .190000000000D+02
     .235986000000D+06  .400000000000D+01
 5 10  9  7 17 59 44.0 -.336058437824D-04 -.500222085975D-11  .000000000000D+00
     .230000000000D+02 -.263750000000D+02  .516807241382D-08  .264577261985D+01
    -.143423676491D-05  .191570981406D-02  .329501926899D-05  .515377044487D+04
     .237584000000D+06  .447034835815D-07 -.146719408495D+01  .204890966415D-07
     .956645963984D+00  .316156250000D+03  .164364515013D+00 -.860107255491D-08
    -.278940190407D-09  .100000000000D+01  .160000000000D+04  .000000000000D+00
     .240000000000D+01  .000000000000D+00 -.884756445885D-08  .230000000000D+02
     .237036000000D+06  .400000000000D+01
 5 10  9  7 19 59 44.0 -.336416997015D-04 -.500222085975D-11  .000000000000D+00
     .240000000000D+02 -.290937500000D+02  .522236038942D-08 -.258733354106D+01
    -.151619315147D-05  .191635568626D-02  .340864062309D-05  .515376922035D+04
     .244784000000D+06  .149011611938D-07 -.146725610097D+01  .353902578354D-07
     .956643863234D+00  .312312500000D+03  .164412280751D+00 -.861893044162D-08
    -.282868925483D-09  .100000000000D+01  .160000000000D+04  .000000000000D+00
     .240000000000D+01  .000000000000D+00 -.884756445885D-08  .240000000000D+02
     .237606000000D+06  .400000000000D+01
 9 10  9  7 19 59 44.0  .290605239570D-04  .227373675443D-11  .000000000000D+00
     .110000000000D+02  .106218750000D+03  .412767193410D-08 -.363420782003D+00
     .547803938389D-05  .170718971640D-01  .972673296928D-05  .515370359039D+04
     .244784000000D+06 -.184401869774D-06  .603760663021D+00  .670552253723D-07
     .981726559229D+00  .210968750000D+03  .154944796180D+01 -.825141513313D-08
     .706457998240D-09  .100000000000D+01  .160000000000D+04  .000000000000D+00
     .240000000000D+01  .000000000000D+00 -.558793544769D-08  .110000000000D+02
     .237606000000D+06  .400000000000D+01
